{
  "type": "FeatureCollection",
  "features": [
    {
      "type": "Feature",
      "properties": {
        "norad_id": 59600,
        "name": "GSAT0227 (GALILEO 30)",
        "group": "galileo",
        "lat": -32.630174288853695,
        "lon": 79.42681748199027,
        "alt_km": 23234.050284608504,
        "timestamp": "2025-12-21T18:54:58.759839+00:00",
        "meta_object_name": "GSAT0227 (GALILEO 30)",
        "meta_object_id": "2024-079C",
        "meta_epoch": "2025-12-21T06:26:54.419424",
        "meta_mean_motion": 1.70474886,
        "meta_eccentricity": 0.00028696,
        "meta_inclination": 55.0016,
        "meta_ra_of_asc_node": 106.0558,
        "meta_arg_of_pericenter": 117.1813,
        "meta_mean_anomaly": 242.8188,
        "meta_ephemeris_type": 0,
        "meta_classification_type": "U",
        "meta_norad_cat_id": 59600,
        "meta_element_set_no": 999,
        "meta_rev_at_epoch": 1033,
        "meta_bstar": 0,
        "meta_mean_motion_dot": 1e-08,
        "meta_mean_motion_ddot": 0,
        "tle_line1": "1 59600U 24079C   25355.26868541  .00000001  00000+0  00000+0 0  9991",
        "tle_line2": "2 59600  55.0016 106.0558 0002869 117.1813 242.8188  1.70474886 10336"
      },
      "geometry": {
        "type": "Point",
        "coordinates": [
          79.42681748199027,
          -32.630174288853695
        ]
      }
    },
    {
      "type": "Feature",
      "properties": {
        "norad_id": 61182,
        "name": "GSAT0232 (GALILEO 32)",
        "group": "galileo",
        "lat": 21.702266191856307,
        "lon": 30.159735295736215,
        "alt_km": 23216.236889258907,
        "timestamp": "2025-12-21T18:54:58.759851+00:00",
        "meta_object_name": "GSAT0232 (GALILEO 32)",
        "meta_object_id": "2024-167A",
        "meta_epoch": "2025-12-21T05:44:27.225600",
        "meta_mean_motion": 1.70473624,
        "meta_eccentricity": 0.0001881,
        "meta_inclination": 55.2384,
        "meta_ra_of_asc_node": 226.1977,
        "meta_arg_of_pericenter": 205.7333,
        "meta_mean_anomaly": 330.6739,
        "meta_ephemeris_type": 0,
        "meta_classification_type": "U",
        "meta_norad_cat_id": 61182,
        "meta_element_set_no": 999,
        "meta_rev_at_epoch": 784,
        "meta_bstar": 0,
        "meta_mean_motion_dot": 7.3e-07,
        "meta_mean_motion_ddot": 0,
        "tle_line1": "1 61182U 24167A   25355.23920400  .00000073  00000+0  00000+0 0  9996",
        "tle_line2": "2 61182  55.2384 226.1977 0001881 205.7333 330.6739  1.70473624  7846"
      },
      "geometry": {
        "type": "Point",
        "coordinates": [
          30.159735295736215,
          21.702266191856307
        ]
      }
    },
    {
      "type": "Feature",
      "properties": {
        "norad_id": 61183,
        "name": "GSAT0226 (GALILEO 31)",
        "group": "galileo",
        "lat": -55.020290298660086,
        "lon": 129.05677788036408,
        "alt_km": 23231.230734284476,
        "timestamp": "2025-12-21T18:54:58.759862+00:00",
        "meta_object_name": "GSAT0226 (GALILEO 31)",
        "meta_object_id": "2024-167B",
        "meta_epoch": "2025-12-21T00:56:32.993664",
        "meta_mean_motion": 1.70473742,
        "meta_eccentricity": 0.00011348,
        "meta_inclination": 55.237,
        "meta_ra_of_asc_node": 226.2086,
        "meta_arg_of_pericenter": 107.254,
        "meta_mean_anomaly": 59.1101,
        "meta_ephemeris_type": 0,
        "meta_classification_type": "U",
        "meta_norad_cat_id": 61183,
        "meta_element_set_no": 999,
        "meta_rev_at_epoch": 781,
        "meta_bstar": 0,
        "meta_mean_motion_dot": 7.3e-07,
        "meta_mean_motion_ddot": 0,
        "tle_line1": "1 61183U 24167B   25355.03927076  .00000073  00000+0  00000+0 0  9991",
        "tle_line2": "2 61183  55.2370 226.2086 0001134 107.2540  59.1101  1.70473742  7815"
      },
      "geometry": {
        "type": "Point",
        "coordinates": [
          129.05677788036408,
          -55.020290298660086
        ]
      }
    },
    {
      "type": "Feature",
      "properties": {
        "norad_id": 67160,
        "name": "GALILEO A",
        "group": "galileo",
        "lat": 50.912121591822675,
        "lon": -135.20622929662585,
        "alt_km": 22953.9849960657,
        "timestamp": "2025-12-21T18:54:58.759873+00:00",
        "meta_object_name": "GALILEO A",
        "meta_object_id": "2025-302A",
        "meta_epoch": "2025-12-18T03:30:19.486368",
        "meta_mean_motion": 1.72906186,
        "meta_eccentricity": 0.00084238,
        "meta_inclination": 54.2406,
        "meta_ra_of_asc_node": 107.2544,
        "meta_arg_of_pericenter": 237.6458,
        "meta_mean_anomaly": 122.2317,
        "meta_ephemeris_type": 0,
        "meta_classification_type": "U",
        "meta_norad_cat_id": 67160,
        "meta_element_set_no": 999,
        "meta_rev_at_epoch": 2,
        "meta_bstar": 0,
        "meta_mean_motion_dot": -7e-08,
        "meta_mean_motion_ddot": 0,
        "tle_line1": "1 67160U 25302A   25352.14605887 -.00000007  00000+0  00000+0 0  9994",
        "tle_line2": "2 67160  54.2406 107.2544 0008423 237.6458 122.2317  1.72906186    28"
      },
      "geometry": {
        "type": "Point",
        "coordinates": [
          -135.20622929662585,
          50.912121591822675
        ]
      }
    },
    {
      "type": "Feature",
      "properties": {
        "norad_id": 67161,
        "name": "GALILEO B",
        "group": "galileo",
        "lat": 50.46917948008632,
        "lon": -133.62270984006327,
        "alt_km": 22941.761511609384,
        "timestamp": "2025-12-21T18:54:58.759884+00:00",
        "meta_object_name": "GALILEO B",
        "meta_object_id": "2025-302B",
        "meta_epoch": "2025-12-19T07:14:53.290752",
        "meta_mean_motion": 1.72972192,
        "meta_eccentricity": 0.00045866,
        "meta_inclination": 54.2272,
        "meta_ra_of_asc_node": 107.1916,
        "meta_arg_of_pericenter": 255.0301,
        "meta_mean_anomaly": 104.8802,
        "meta_ephemeris_type": 0,
        "meta_classification_type": "U",
        "meta_norad_cat_id": 67161,
        "meta_element_set_no": 999,
        "meta_rev_at_epoch": 5,
        "meta_bstar": 0,
        "meta_mean_motion_dot": -5e-08,
        "meta_mean_motion_ddot": 0,
        "tle_line1": "1 67161U 25302B   25353.30200568 -.00000005  00000+0  00000+0 0  9999",
        "tle_line2": "2 67161  54.2272 107.1916 0004586 255.0301 104.8802  1.72972192    57"
      },
      "geometry": {
        "type": "Point",
        "coordinates": [
          -133.62270984006327,
          50.46917948008632
        ]
      }
    }
  ]
}